NORAD_CAT_ID,OBJECT_NAME,OBJECT_TYPE,EPOCH,MEAN_MOTION,ECCENTRICITY,INCLINATION,RA_OF_ASC_NODE,ARG_OF_PERICENTER,MEAN_ANOMALY,BSTAR,MEAN_MOTION_DOT,MEAN_MOTION_DDOT,TLE_LINE0,TLE_LINE1,TLE_LINE2,SEMIMAJOR_AXIS,PERIOD,APOGEE,PERIGEE,DECAYED
54770.0,STARLINK-5448,PAYLOAD,2023-12-11 14:37:24,15.0886026,0.0001259,53.2157,106.3003,65.7281,294.3842,0.0003738,5.669e-05,0.0,0 STARLINK-5448,1 54770U 22175N   23345.60930762  .00005669  00000-0  37380-3 0  9990,2 54770  53.2157 106.3003 0001259  65.7281 294.3842 15.08860260 56477,6917.818,95.436,540.554,538.813,0.0
54770.0,STARLINK-5448,PAYLOAD,2023-12-12 11:17:24,15.08855816,0.0001143,53.2167,102.4283,74.3373,285.7746,4.4883e-05,4.27e-06,0.0,0 STARLINK-5448,1 54770U 22175N   23346.47042212  .00000427  00000-0  44883-4 0  9994,2 54770  53.2167 102.4283 0001143  74.3373 285.7746 15.08855816 54448,6917.832,95.437,540.488,538.906,0.0
54770.0,STARLINK-5448,PAYLOAD,2023-12-12 12:52:47,15.08855758,0.0001127,53.2155,102.134,80.9725,279.1394,5.4629e-05,5.82e-06,0.0,0 STARLINK-5448,1 54770U 22175N   23346.53666170  .00000582  00000-0  54629-4 0  9997,2 54770  53.2155 102.1340 0001127  80.9725 279.1394 15.08855758 56614,6917.832,95.437,540.477,538.918,0.0
54770.0,STARLINK-5448,PAYLOAD,2023-12-12 14:28:10,15.08855633,0.0001128,53.2153,101.8379,81.3751,278.7369,5.5168e-05,5.91e-06,0.0,0 STARLINK-5448,1 54770U 22175N   23346.60290129  .00000591  00000-0  55168-4 0  9991,2 54770  53.2153 101.8379 0001128  81.3751 278.7369 15.08855633 56625,6917.833,95.437,540.478,538.917,0.0
54770.0,STARLINK-5448,PAYLOAD,2023-12-13 11:08:11,15.08843955,0.0001298,53.2167,97.9695,96.2674,263.8466,-1.0555e-05,-4.56e-06,0.0,0 STARLINK-5448,1 54770U 22175N   23347.46402118 -.00000456  00000-0 -10555-4 0  9992,2 54770  53.2167  97.9695 0001298  96.2674 263.8466 15.08843955 54594,6917.868,95.437,540.631,538.835,0.0
54770.0,STARLINK-5448,PAYLOAD,2023-12-13 12:43:34,15.0884783,0.0001283,53.2166,97.6729,84.3401,275.7737,-8.1612e-05,-1.587e-05,0.0,0 STARLINK-5448,1 54770U 22175N   23347.53025950 -.00001587  00000-0 -81612-4 0  9993,2 54770  53.2166  97.6729 0001283  84.3401 275.7737 15.08847830 56768,6917.856,95.437,540.609,538.834,0.0
54770.0,STARLINK-5448,PAYLOAD,2023-12-14 10:58:58,15.08840002,0.000148,53.2181,93.5107,109.4335,250.6817,6.7676e-05,7.89e-06,0.0,0 STARLINK-5448,1 54770U 22175N   23348.45762228  .00000789  00000-0  67676-4 0  9996,2 54770  53.2181  93.5107 0001480 109.4335 250.6817 15.08840002 56905,6917.88,95.438,540.769,538.722,0.0
54770.0,STARLINK-5448,PAYLOAD,2023-12-15 12:25:09,15.08831967,0.0001389,53.2176,88.749,92.249,267.8661,1.4245e-05,-6.1e-07,0.0,0 STARLINK-5448,1 54770U 22175N   23349.51747121 -.00000061  00000-0  14245-4 0  9997,2 54770  53.2176  88.7490 0001389  92.2490 267.8661 15.08831967 54904,6917.905,95.438,540.731,538.809,0.0
54770.0,STARLINK-5448,PAYLOAD,2023-12-16 12:15:56,15.08836434,0.0001457,53.217,84.2903,101.5045,258.611,0.00023341,3.428e-05,0.0,0 STARLINK-5448,1 54770U 22175N   23350.51106664  .00003428  00000-0  23341-3 0  9995,2 54770  53.2170  84.2903 0001457 101.5045 258.6110 15.08836434 55052,6917.891,95.438,540.764,538.748,0.0
54770.0,STARLINK-5448,PAYLOAD,2023-12-16 13:51:20,15.08816921,0.0001646,53.2169,83.9933,85.0417,275.0763,0.0010401,0.00016293,0.0,0 STARLINK-5448,1 54770U 22175N   23350.57732099  .00016293  00000-0  10401-2 0  9994,2 54770  53.2169  83.9933 0001646  85.0417 275.0763 15.08816921 57225,6917.951,95.439,540.955,538.677,0.0
54770.0,STARLINK-5448,PAYLOAD,2023-12-17 12:06:43,15.08839643,0.0001621,53.2172,79.8298,69.3484,290.7682,0.00016065,2.27e-05,0.0,0 STARLINK-5448,1 54770U 22175N   23351.50467274  .00002270  00000-0  16065-3 0  9991,2 54770  53.2172  79.8298 0001621  69.3484 290.7682 15.08839643 55205,6917.881,95.438,540.868,538.625,0.0
54770.0,STARLINK-5448,PAYLOAD,2023-12-17 13:42:06,15.08843249,0.0001584,53.2176,79.5304,79.8169,280.3002,0.00020258,2.938e-05,0.0,0 STARLINK-5448,1 54770U 22175N   23351.57091065  .00002938  00000-0  20258-3 0  9999,2 54770  53.2176  79.5304 0001584  79.8169 280.3002 15.08843249 57376,6917.87,95.437,540.831,538.64,0.0
54770.0,STARLINK-5448,PAYLOAD,2023-12-18 11:57:29,15.08856731,0.00014,53.2153,75.3702,100.5626,259.5524,0.0003168,4.76e-05,0.0,0 STARLINK-5448,1 54770U 22175N   23352.49826177  .00004760  00000-0  31680-3 0  9997,2 54770  53.2153  75.3702 0001400 100.5626 259.5524 15.08856731 55357,6917.829,95.436,540.663,538.726,0.0
54770.0,STARLINK-5448,PAYLOAD,2023-12-19 11:48:17,15.0884856,0.0001467,53.216,70.9079,67.883,292.2317,0.00020876,3.037e-05,0.0,0 STARLINK-5448,1 54770U 22175N   23353.49186404  .00003037  00000-0  20876-3 0  9991,2 54770  53.2160  70.9079 0001467  67.8830 292.2317 15.08848560 55500,6917.854,95.437,540.734,538.704,0.0
54770.0,STARLINK-5448,PAYLOAD,2023-12-20 10:03:41,15.08831016,0.0001377,53.2173,66.7419,102.1132,258.0014,5.205e-06,-2.05e-06,0.0,0 STARLINK-5448,1 54770U 22175N   23354.41923007 -.00000205  00000-0  52050-5 0  9998,2 54770  53.2173  66.7419 0001377 102.1132 258.0014 15.08831016 55640,6917.908,95.438,540.725,538.82,0.0
54770.0,STARLINK-5448,PAYLOAD,2023-12-21 11:29:52,15.08851881,0.000145,53.217,61.9872,90.4515,269.6643,0.0007092,0.00011021,0.0,0 STARLINK-5448,1 54770U 22175N   23355.47907436  .00011021  00000-0  70920-3 0  9994,2 54770  53.2170  61.9872 0001450  90.4515 269.6643 15.08851881 55809,6917.844,95.437,540.712,538.706,0.0
54770.0,STARLINK-5448,PAYLOAD,2023-12-22 09:45:15,15.08850609,0.0001591,53.2183,57.8212,102.6447,257.4723,0.00030576,4.583e-05,0.0,0 STARLINK-5448,1 54770U 22175N   23356.40643130  .00004583  00000-0  30576-3 0  9994,2 54770  53.2183  57.8212 0001591 102.6447 257.4723 15.08850609 55947,6917.848,95.437,540.814,538.612,0.0
54770.0,STARLINK-5448,PAYLOAD,2023-12-23 09:36:02,15.08841402,0.0001525,53.2172,53.3642,95.3669,264.7497,-1.8782e-05,-5.87e-06,0.0,0 STARLINK-5448,1 54770U 22175N   23357.40003266 -.00000587  00000-0 -18782-4 0  9993,2 54770  53.2172  53.3642 0001525  95.3669 264.7497 15.08841402 56091,6917.876,95.437,540.796,538.686,0.0
54770.0,STARLINK-5448,PAYLOAD,2023-12-24 11:02:12,15.08849925,0.0001447,53.217,48.6073,92.27,267.8458,0.00027029,4.017e-05,0.0,0 STARLINK-5448,1 54770U 22175N   23358.45987157  .00004017  00000-0  27029-3 0  9992,2 54770  53.2170  48.6073 0001447  92.2700 267.8458 15.08849925 56256,6917.85,95.437,540.716,538.714,0.0
54770.0,STARLINK-5448,PAYLOAD,2023-12-24 23:45:18,15.08845463,0.0001822,53.2168,46.2283,120.9754,239.1417,-1.245e-05,-4.86e-06,0.0,0 STARLINK-5448,1 54770U 22175N   23358.98979446 -.00000486  00000-0 -12450-4 0  9993,2 54770  53.2168  46.2283 0001822 120.9754 239.1417 15.08845463 56334,6917.864,95.437,540.989,538.468,0.0
54770.0,STARLINK-5448,PAYLOAD,2023-12-25 12:28:23,15.08855257,0.0001563,53.2169,43.8508,92.1127,268.0044,0.00039669,6.034e-05,0.0,0 STARLINK-5448,1 54770U 22175N   23359.51971133  .00006034  00000-0  39669-3 0  9991,2 54770  53.2169  43.8508 0001563  92.1127 268.0044 15.08855257 58571,6917.834,95.437,540.78,538.617,0.0
54770.0,STARLINK-5448,PAYLOAD,2023-12-26 02:46:52,15.08836522,0.0001932,53.2169,41.1764,75.845,284.2757,1.9694e-05,2.5e-07,0.0,0 STARLINK-5448,1 54770U 22175N   23360.11588244  .00000025  00000-0  19694-4 0  9997,2 54770  53.2169  41.1764 0001932  75.8450 284.2757 15.08836522 56509,6917.891,95.438,541.093,538.419,0.0
54770.0,STARLINK-5448,PAYLOAD,2023-12-26 09:08:24,15.08836512,0.0001749,53.217,39.9861,78.0642,282.0546,6.1876e-05,6.97e-06,0.0,0 STARLINK-5448,1 54770U 22175N   23360.38084318  .00000697  00000-0  61876-4 0  9993,2 54770  53.2170  39.9861 0001749  78.0642 282.0546 15.08836512 58703,6917.891,95.438,540.966,538.546,0.0
54770.0,STARLINK-5448,PAYLOAD,2023-12-27 08:59:11,15.08850159,0.000174,53.2168,35.5245,90.6734,269.4458,0.00046472,7.118e-05,0.0,0 STARLINK-5448,1 54770U 22175N   23361.37444056  .00007118  00000-0  46472-3 0  9991,2 54770  53.2168  35.5245 0001740  90.6734 269.4458 15.08850159 56691,6917.849,95.437,540.918,538.511,0.0
54770.0,STARLINK-5448,PAYLOAD,2023-12-28 12:00:44,15.08844519,0.0001816,53.2173,30.4679,97.6891,262.4308,0.00013833,1.914e-05,0.0,0 STARLINK-5448,1 54770U 22175N   23362.50052041  .00001914  00000-0  13833-3 0  9999,2 54770  53.2173  30.4679 0001816  97.6891 262.4308 15.08844519 56866,6917.867,95.437,540.988,538.475,0.0
54770.0,STARLINK-5448,PAYLOAD,2023-12-29 08:40:46,15.08838089,0.0001956,53.2191,26.6047,103.3709,256.7501,1.4835e-05,-5.2e-07,0.0,0 STARLINK-5448,1 54770U 22175N   23363.36164616 -.00000052  00000-0  14835-4 0  9993,2 54770  53.2191  26.6047 0001956 103.3709 256.7501 15.08838089 56990,6917.886,95.438,541.104,538.398,0.0
54770.0,STARLINK-5448,PAYLOAD,2023-12-30 06:56:10,15.08837694,0.000185,53.2186,22.4356,97.173,262.9472,9.1817e-05,1.173e-05,0.0,0 STARLINK-5448,1 54770U 22175N   23364.28900530  .00001173  00000-0  91817-4 0  9997,2 54770  53.2186  22.4356 0001850  97.1730 262.9472 15.08837694 59291,6917.887,95.438,541.032,538.473,0.0
54770.0,STARLINK-5448,PAYLOAD,2023-12-31 08:22:20,15.08837007,0.0001737,53.2181,17.6791,86.4332,273.6859,7.1054e-05,8.43e-06,0.0,0 STARLINK-5448,1 54770U 22175N   23365.34885027  .00000843  00000-0  71054-4 0  9992,2 54770  53.2181  17.6791 0001737  86.4332 273.6859 15.08837007 57292,6917.89,95.438,540.956,538.553,0.0
54770.0,STARLINK-5448,PAYLOAD,2024-01-01 09:48:30,15.08840189,0.0001827,53.2186,12.9231,85.1265,274.9936,8.7281e-05,1.101e-05,0.0,0 STARLINK-5448,1 54770U 22175N   24001.40868991  .00001101  00000-0  87281-4 0  9995,2 54770  53.2186  12.9231 0001827  85.1265 274.9936 15.08840189 57458,6917.88,95.438,541.009,538.481,0.0
54770.0,STARLINK-5448,PAYLOAD,2024-01-02 08:03:54,15.08842919,0.0001893,53.2188,8.7621,80.0955,280.0251,9.152e-05,1.169e-05,0.0,0 STARLINK-5448,1 54770U 22175N   24002.33604944  .00001169  00000-0  91520-4 0  9999,2 54770  53.2188   8.7621 0001893  80.0955 280.0251 15.08842919 59755,6917.871,95.437,541.046,538.427,0.0
